IRIDIUM 136             
1 42962U 17061H   24158.73048843  .00000101  00000+0  29150-4 0  9997
2 42962  86.3961 334.6933 0001886  83.4646 276.6764 14.34216626348708
